[{"OBJECT_NAME":"STARLINK-3685","OBJECT_ID":"2022-029AD","EPOCH":"2026-03-09T06:27:57.002400","MEAN_MOTION":15.0883145,"ECCENTRICITY":0.00013346,"INCLINATION":53.2174,"RA_OF_ASC_NODE":81.0082,"ARG_OF_PERICENTER":90.6968,"MEAN_ANOMALY":269.4177,"EPHEMERIS_TYPE":0,"CLASSIFICATION_TYPE":"U","NORAD_CAT_ID":52115,"ELEMENT_SET_NO":999,"REV_AT_EPOCH":22072,"BSTAR":0.00010459442,"MEAN_MOTION_DOT":1.377e-5,"MEAN_MOTION_DDOT":0},{"OBJECT_NAME":"PEGASUS DEB","OBJECT_ID":"1994-029WD","EPOCH":"2026-03-09T21:43:57.366912","MEAN_MOTION":14.89136591,"ECCENTRICITY":0.01058593,"INCLINATION":81.9743,"RA_OF_ASC_NODE":221.1497,"ARG_OF_PERICENTER":252.4191,"MEAN_ANOMALY":235.9905,"EPHEMERIS_TYPE":0,"CLASSIFICATION_TYPE":"U","NORAD_CAT_ID":24529,"ELEMENT_SET_NO":999,"REV_AT_EPOCH":23750,"BSTAR":0.00030874262,"MEAN_MOTION_DOT":3.26e-5,"MEAN_MOTION_DDOT":0}]
